[{"OBJECT_NAME":"EXO-0","OBJECT_ID":"2023-174DK","EPOCH":"2026-03-09T17:03:04.419648","MEAN_MOTION":15.32821991,"ECCENTRICITY":0.00098779,"INCLINATION":97.3864,"RA_OF_ASC_NODE":148.9039,"ARG_OF_PERICENTER":157.1125,"MEAN_ANOMALY":203.0559,"EPHEMERIS_TYPE":0,"CLASSIFICATION_TYPE":"U","NORAD_CAT_ID":59175,"ELEMENT_SET_NO":999,"REV_AT_EPOCH":12979,"BSTAR":0.00036716083,"MEAN_MOTION_DOT":0.00011582,"MEAN_MOTION_DDOT":0},{"OBJECT_NAME":"STARLINK-35336","OBJECT_ID":"2025-232B","EPOCH":"2026-03-09T09:08:00.187008","MEAN_MOTION":15.30196365,"ECCENTRICITY":0.00012015,"INCLINATION":53.1582,"RA_OF_ASC_NODE":104.9612,"ARG_OF_PERICENTER":92.3455,"MEAN_ANOMALY":267.7684,"EPHEMERIS_TYPE":0,"CLASSIFICATION_TYPE":"U","NORAD_CAT_ID":66006,"ELEMENT_SET_NO":999,"REV_AT_EPOCH":2338,"BSTAR":0.0007853787,"MEAN_MOTION_DOT":0.00022971,"MEAN_MOTION_DDOT":0}]
