EXO-0                   
1 59175U 23174DK  26068.71046781  .00011582  00000+0  36716-3 0  9992
2 59175  97.3864 148.9039 0009878 157.1125 203.0559 15.32821991129797
STARLINK-35336          
1 66006U 25232B   26068.38055772  .00022971  00000+0  78538-3 0  9995
2 66006  53.1582 104.9612 0001201  92.3455 267.7684 15.30196365 23384
